,recipient,name,status,transactions_90D,active_addresses_90D,daily_active_addresses_90D,farcaster_users_90D,transactions_180D,active_addresses_180D,daily_active_addresses_180D,farcaster_users_180D,uuid_list
0,0x01133c3834a96aDd681a9C9Ad3b2f955968ed60F,ArbiLearn,metrics_available,36.0,10.0,0.0,0.0,36.0,10.0,0.0,0.0,"['6abc3227-4e7f-4786-863c-abdd23f488a2', '72d91704-0a5f-4ec7-9e6b-92d5d72df0bc']"
1,0x013437412c41716f72B54fE66d7c11858aFe4894,BetBase,metrics_available,12901.0,2146.0,60.0,198.0,32785.0,4295.0,68.0,456.0,['8bd5539d-ef65-4f2c-9014-3fc11620f12f']
2,0x022541dF816F50CfC6ce60c9de80619F44f7CeF1,datalatte,metrics_available,73.0,4.0,0.0,3.0,73.0,4.0,0.0,3.0,['78f0eac0-c56e-489c-a4e3-9c700ccf4ce8']
3,0x02cdD55Bea4d8Ef7E7dDA6A60305a03dfaB0C128,/send,metrics_available,33636.0,1816.0,46.0,129.0,45966.0,3765.0,60.0,293.0,"['02873c40-7e3f-4f0c-b9ff-ba12466b834c', '3600073d-fe30-4c55-84b6-5cf388843fd2', '40e9c64b-e468-4a27-8dfa-b392f5813c2e', '91d27ce9-b7f8-4c31-bba2-f8a0ba72eadb', 'b6cb620b-63ad-4ff7-b9bf-53c66db71dad', 'f7e0b2d9-b0c5-4464-9994-9ae3984a3579']"
4,0x035eBd096AFa6b98372494C7f08f3402324117D3,Namespace - ENS Subname Sorcery,metrics_available,1683.0,143.0,1.0,117.0,1683.0,143.0,0.0,117.0,['45ca2132-cb78-4e41-aca2-61f2fe8c71c1']
5,0x06AE622bF2029Db79Bdebd38F723f1f33f95F6C5,nounspace,metrics_available,5.0,3.0,0.0,0.0,5.0,3.0,0.0,0.0,['7ec52321-6065-4cbf-b763-dec8b0ad5290']
6,0x073f0DC58e9989C827bA5b7b35570B7315652e63,Gloom,metrics_available,132.0,111.0,1.0,49.0,41802.0,8195.0,78.0,5182.0,['b7e11cb2-d643-4f5f-99ce-803f396b31a5']
7,0x08D816526BdC9d077DD685Bd9FA49F58A5Ab8e48,Collectr,metrics_available,217.0,164.0,2.0,52.0,217.0,164.0,1.0,52.0,['cb6ef65c-3136-4af7-9be1-c993d8789376']
8,0x091Ce12B4592f1b434e597374BF6F054904F200A,Event Horizon DEX,metrics_available,156250.0,69218.0,848.0,6072.0,156314.0,69233.0,424.0,6075.0,"['278bd0d9-4887-44bb-bbdd-37f88a5f0e6b', '3b2e3fce-6673-4e1d-8b7d-83431ad27ee6', '3bbe2463-0d9b-4d12-bf59-1eaab405e941', '4c5edadc-00b0-4063-a62c-fc768c164921', '578a22eb-31d1-47d4-90fe-516b380b588a', '643b9cf2-c91b-4b10-9efc-3afa8beec654', '8280bdf5-79bf-4d5e-88c0-2ab18741e0f9', '8e56e88c-f02d-48cd-8208-9ebef2287d21', 'a8e6bf30-59cb-4b11-b938-8353effd846c', 'baa4fa61-e1e8-4e5f-91a4-9fceb08796ff']"
9,0x0B3CF56E7dF3BB3Fb7201fFcD96d279b05DDd2E3,Scoop,metrics_available,161652.0,3070.0,191.0,10.0,161652.0,3070.0,95.0,10.0,['3922c00b-976f-43dd-8e1a-616b686efee1']
10,0x0c9E725902f2eeEC063c16d253F38684E3192001,Boregon Trail,metrics_available,74768.0,2648.0,75.0,962.0,183331.0,19870.0,234.0,6407.0,['b6dff2cb-33fa-449a-8434-6ef6ea5624c6']
11,0x1014f9499259988e35F1C45F6aE6Aa9FBA011E80,fxhash,metrics_available,8095.0,3959.0,61.0,1614.0,136948.0,49057.0,298.0,18719.0,['74f31cd5-dcd5-4ae5-a481-a2b70b2d5200']
12,0x11a434254794e96d2606f249c6911E94765a5796,SwapBased,metrics_available,116396.0,12191.0,329.0,489.0,462387.0,43262.0,662.0,1893.0,['78f5358d-b614-42ec-a07b-7cad08ac4d9b']
13,0x1395348Cb0E7b62E9DbaadA079B10A4E6AC26a8F,Ionic,metrics_available,4325.0,2491.0,31.0,1076.0,189826.0,38293.0,413.0,10926.0,['62fc6280-e66f-4e03-a93f-c04f2b11f383']
14,0x1b9706227704F49e412ABC9da7Dd7D35aFa60c22,NFTarot,metrics_available,2150.0,1540.0,18.0,642.0,2150.0,1540.0,9.0,642.0,['9b4e49fb-b436-41eb-8cf2-d66f53bab05a']
15,0x1d671d1B191323A38490972D58354971E5c1cd2A,Based Bits,metrics_available,4469.0,192.0,49.0,114.0,6367.0,294.0,35.0,163.0,['08868559-3e11-4d15-9ec4-6a589a2d91f2']
16,0x1e23166194aB72B70Faf90aA20Adab36607B4c78,NPC Labs,metrics_available,102.0,85.0,1.0,6.0,102.0,85.0,0.0,6.0,['0c682377-2b21-414c-8ae2-51a2aec4fc10']
17,0x1e4c7ff127B2321eD05c43AF5E1015dFd8885F30,Overtime Markets,metrics_available,207521.0,2974.0,130.0,1532.0,207593.0,2975.0,65.0,1532.0,['3fe23b54-e0a8-4869-9e59-c2d1ef8fa5c7']
18,0x1e4c7ff127B2321eD05c43AF5E1015dFd8885F30,Thales Protocol,metrics_available,1461.0,257.0,8.0,78.0,9865.0,1021.0,23.0,239.0,['4c2bd46d-c518-4798-84f8-27b0bdca3c73']
19,0x2055149768d71910aA4125CcBb9fDc46EdeB2436,Quidli,metrics_available,114.0,17.0,0.0,13.0,114.0,17.0,0.0,13.0,['be4c1824-c482-4316-b5c6-706e926061da']
20,0x2462B983E444B317C999b85CE3BBa79840D36F76,Degen Name Service,metrics_available,52.0,19.0,0.0,2.0,52.0,19.0,0.0,2.0,['6d5a0660-c0c9-4936-8621-406289645d2b']
21,0x265985d0a57A4339509cd785f854668055924AF5,CC: App Type 8.20.24,metrics_available,24515.0,22132.0,256.0,2299.0,24515.0,22132.0,128.0,2299.0,['1e90433c-90da-444b-a9c0-7f2a50caf423']
22,0x26a65cA76E1Bd0E3962DF3795fd160782Db24fc4,WOOFi,metrics_available,5007.0,3510.0,42.0,216.0,14321.0,9738.0,62.0,652.0,['b27c62f4-d5f7-4b9a-8769-468b5fa4c792']
23,0x288262DcdF3e2f3dbcb2DcFbF9DCC0D9AdC50f8a,Swaye,metrics_available,96.0,36.0,0.0,1.0,96.0,36.0,0.0,1.0,['bf0f3f7d-e39c-43eb-a546-a0d383a1cae5']
24,0x300ecEb6f549c14779DdCBD9BdFce4a2B1C7DFaB,Savings-USX $sUSX,metrics_available,25.0,11.0,0.0,0.0,25.0,11.0,0.0,0.0,['07cbabee-44a5-4fb9-96d3-f03d52f3dd37']
25,0x3363b291a21cC692A5e07C9C63E3DF45F135EFcd,Feed,metrics_available,91.0,8.0,0.0,1.0,91.0,8.0,0.0,1.0,['8b32b54d-42e7-4b11-8e97-d2c95a160164']
26,0x357843d6d1ECE85ABA4032EfA31a2e813F519261,Checkin: Location-based ‚ÄúCheckin and Earn‚Äù social to connect IRL and onchain,metrics_available,1922.0,320.0,4.0,290.0,1922.0,320.0,2.0,290.0,['649e921b-3f19-4a5a-8d8e-6a42508c2741']
27,0x372082138ea420eBe56078D73F0359D686A7E981,Target Onchain üéØ,metrics_available,50518.0,273.0,7.0,139.0,60008.0,677.0,7.0,338.0,['b1b4f593-14a5-4eb0-8b08-f08aea75137d']
28,0x37A6156e4a6E8B60b2415AF040546cF5e91699bd,Metronome,metrics_available,4.0,3.0,0.0,0.0,70.0,24.0,0.0,0.0,['76e7ae2e-7aa9-4d6b-832a-6a838772da18']
29,0x37A6156e4a6E8B60b2415AF040546cF5e91699bd,Vesper Finance,metrics_available,8.0,6.0,0.0,0.0,50.0,25.0,0.0,0.0,['6104ece1-68f7-40a9-aeef-723f33e440ce']
30,0x3d4aaFbe86059d17C6263332c560f18C4F1Fec34,Gaslite Drop,metrics_available,45937.0,239.0,9.0,12.0,81157.0,502.0,8.0,46.0,['98dc9e5e-44d2-4c74-85fc-ea192fc2a251']
31,0x3fb4920e09493b2bC7e9b7e14EA7585Ca8bAbF21,Songbirdz,metrics_available,4119.0,1688.0,20.0,739.0,4209.0,1690.0,10.0,739.0,['ec336ada-b777-42e2-9878-812a87d7bf13']
32,0x41a8709A508f07e6fA33dB0111813C5084fDC50D,Silo Finance,metrics_available,150729.0,303.0,38.0,0.0,150738.0,303.0,19.0,0.0,"['0e554b3f-68d3-4b76-9850-4d7e639bb06d', '2d687960-ac06-4525-86d4-c6f4550eee07', '79ca5360-e99c-4b63-a147-3b9ba74f81ac', '7f3f7eda-5a61-44c8-b8d3-e89fd718c4b3', 'fef42e13-7204-4f1f-a20c-065e6baf2b51']"
33,0x44e156CBb4506cee55A96b45D10A77806E012469,Pixotchi,metrics_available,138627.0,10898.0,203.0,1499.0,188240.0,14307.0,156.0,1740.0,['55ea809f-3a8b-4ccf-abbf-4e25374dd239']
34,0x460464c72E010A805043195c56690347f67BE746,BLOCKLORDS,metrics_available,152353.0,290.0,4.0,19.0,152363.0,292.0,2.0,19.0,['0d9b31cc-c2ef-41c3-8ba0-dea4a3a37de1']
35,0x4A0658bdADEF6CBbF7cB6d55eb7CB684886Fc74B,Safaricaster,metrics_available,131.0,81.0,1.0,69.0,131.0,81.0,0.0,69.0,['f229ae60-0332-47ad-8f82-87ab52e06b68']
36,0x4A29c8fF7D6669618580A68dc691565B07b19e25,Demo STG Project - Contract - Prelaunch,metrics_available,59.0,25.0,0.0,2.0,361.0,95.0,1.0,17.0,['3ef45361-b5be-4fea-9ca7-841ca479a89f']
37,0x4Dd958cA0455BFb231770cD06898894b4c974671,Moshicam,metrics_available,12926.0,2.0,0.0,0.0,12926.0,2.0,0.0,0.0,['ad694136-109e-4227-a214-1329f099aff0']
38,0x4E030653a39B3478aDc03d2c7B6F8C45aE685882,SuperBoring,metrics_available,2730.0,186.0,16.0,149.0,2730.0,186.0,8.0,149.0,['29f32cfe-7faa-4d47-829c-440137a7899c']
39,0x4ECfFE726461504516B6B0A93Ab1CE33793E878B,Moonwell,metrics_available,39.0,1.0,0.0,0.0,131.0,1.0,0.0,0.0,['90db12ec-ba0c-4d85-a2d0-4c207ddc2092']
40,0x5083602Bc796Ff1435769a4C66AFD482a4e6E08A,dHEDGE,metrics_available,22.0,21.0,0.0,1.0,88.0,57.0,0.0,5.0,['3df2cd3b-06f9-42d3-8a5f-a8e5b377a127']
41,0x5083602Bc796Ff1435769a4C66AFD482a4e6E08A,dHEDGE Base,metrics_available,26.0,17.0,0.0,2.0,57.0,35.0,0.0,5.0,['e1020776-ad77-4f46-9736-180038ff0896']
42,0x56eeD2aa6DF7da7FD721629a99f3890E814167DB,Sturdy,metrics_available,4079.0,2461.0,35.0,777.0,33772.0,7756.0,84.0,2151.0,['480aae5a-3e1b-4b9e-a8e8-3a06a47f78af']
43,0x5b7a11ba3f66Bd2365B5f489B72DbB46d528Da7a,Payflow,metrics_available,826.0,131.0,1.0,40.0,1888.0,136.0,1.0,40.0,['211197d4-6273-40cd-aae1-3638143438cb']
44,0x5c54560B6da16dCEdFAeF1d9118c547ED2F373eC,Toros (Base),metrics_available,9149.0,6507.0,94.0,1432.0,9402.0,6582.0,48.0,1434.0,['11c708c3-7202-47ef-83eb-93128333efea']
45,0x5c54560B6da16dCEdFAeF1d9118c547ED2F373eC,Toros (Optimism),metrics_available,48375.0,4593.0,283.0,148.0,52060.0,5539.0,157.0,314.0,['b0de8ea4-0efe-4cd0-95be-d3fd697b8986']
46,0x5f97Cf9DD2cb7b53C47f6b1c26Ab4Bd143325d45,Onchain Mecha,metrics_available,44.0,2.0,0.0,0.0,44.0,2.0,0.0,0.0,['1dd6cb56-dfe3-4082-a6d0-1531d1f902e3']
47,0x68E08371d1D0311b7c81961c431D71F71a94dd1a,Onchain Affiliates,metrics_available,334.0,329.0,3.0,300.0,334.0,329.0,1.0,300.0,['67209e62-be17-43ad-9259-b8cd4a8ae1b2']
48,0x6A08A2b9C30174506bF4922d0C580995136c762D,KRASH WORLD: DA GAME PASS,metrics_available,48.0,3.0,0.0,1.0,48.0,3.0,0.0,1.0,['00df8f90-6f06-4b92-8ed9-13f3fbe8cbcf']
49,0x6A08A2b9C30174506bF4922d0C580995136c762D,PSILOCYBIN,metrics_available,305.0,273.0,3.0,115.0,305.0,273.0,1.0,115.0,['44cceb66-8501-40b7-b977-b9aecf4d4b3b']
50,0x6CeBc0bBc501d73Fe71D9fe3063fA22d1B17f3f4,PokPok Protocol,metrics_available,4512.0,61.0,3.0,17.0,4512.0,61.0,1.0,17.0,['5df30ae5-bda9-4799-998f-a82e794396d9']
51,0x6E23873AB8dD6Fb4823dF8A92D43643Fff537684,BasedChad,metrics_available,9051.0,1329.0,30.0,138.0,49158.0,8860.0,106.0,1138.0,"['abc16c17-0a0c-4b9a-9b13-870fac9db4cd', 'fdb1b477-97c1-40a3-8fba-8cdcd1db580b']"
52,0x6a2E16EA3a608E8D697B3fc0f59d0012A76901e4,Balancer,metrics_available,70915.0,33459.0,624.0,5135.0,174605.0,70621.0,743.0,6845.0,"['0a111b32-b39c-4f9e-8e2c-52452c31016f', '36037695-465b-46bf-8af8-917d96a2d176', '9bdddd91-6261-4fe4-acc6-9b16acfbda38', 'b296d9ad-6597-497d-b193-74a68da9bc24', 'bc122237-96a4-48b9-a568-acd523b799cb', 'd8a47ba1-e10c-4499-80f1-17694ed786b1']"
53,0x6cfbF06E8b6612B39333eA7c230208D1d178278d,Another World,metrics_available,57.0,3.0,0.0,1.0,142.0,5.0,0.0,1.0,['3d669a90-f377-4e3b-91f0-8d0818d5f1f3']
54,0x6d9fFaede2c6CD9bb48becE230ad589e0E0D981c,herocast,metrics_available,34026.0,316.0,11.0,80.0,39655.0,508.0,12.0,142.0,['1e96baa9-afe3-429c-a3e0-ce88fe2a3d1c']
55,0x702ba46435D1E55B18440100BC81EB055574875e,Bario Entertainment System,metrics_available,3630.0,584.0,9.0,57.0,3630.0,584.0,4.0,57.0,['12aef6c3-f681-4483-80be-d754b7f1990a']
56,0x73f6F1eD2B4246Aa5313abD8799164F632E4409C,Sunnypunx,metrics_available,47.0,15.0,0.0,9.0,56.0,22.0,0.0,14.0,['63313238-bd94-43ab-b981-b9e778917ad2']
57,0x74fa01a5D0ef8039f1E14F4d4C8f90e8602e07B4,BCard,metrics_available,7.0,2.0,0.0,1.0,7.0,2.0,0.0,1.0,['550daa9a-e20c-439f-b816-7a0eb229b5c1']
58,0x75F2Ef654919CA7fd03E73BfDF60b9460e5cDE8D,Charged Particles - Web3 Packs,metrics_available,65.0,23.0,0.0,9.0,65.0,23.0,0.0,9.0,['5f081f0e-9834-449a-b748-fa86bcfd08c7']
59,0x7639b96593B2E34F27Ee57f4B1583c4b33dd9679,Smellcheckmate,metrics_available,37.0,32.0,0.0,28.0,37.0,32.0,0.0,28.0,['c4d583a8-91fc-424e-861f-f995e976f58d']
60,0x76a71d7D72d746B20187461baCE98806ebBa652f,BerryLab,metrics_available,129.0,106.0,1.0,74.0,129.0,106.0,0.0,74.0,['5523b0e7-3038-46cc-9218-5f5e52042b14']
61,0x7A254a1271f338995d4768C5066508B1b0946aA8,Snickerdoodle,metrics_available,133808.0,6.0,0.0,1.0,135362.0,8.0,0.0,3.0,['951cae03-ee9e-4408-8e5e-203d97be52e9']
62,0x7aA49f55A538586764b65a0C4C7e1D8C6243C027,SynFutures,metrics_available,622027.0,85773.0,2089.0,114.0,622027.0,85773.0,1044.0,114.0,['223128bf-802d-40f8-9c33-25f88a114c7e']
63,0x823c6115651D915614EB8d9f899d6d1FA939936D,$BDOOGS,metrics_available,10.0,7.0,0.0,2.0,10.0,7.0,0.0,2.0,['52af194c-b618-47a2-9a64-61c27a21d16b']
64,0x84EC34a8b64e9A40248599fe0f8afA9d66742Fe0,Air3,metrics_available,1774.0,1104.0,13.0,261.0,1774.0,1104.0,6.0,261.0,['795a96c7-4d7e-4c58-8958-aad52d6a8f12']
65,0x84EEb7dB3f93feb5A8A98F56Dabb970A6797c187,Welcome Onchain,metrics_available,50518.0,273.0,7.0,139.0,60008.0,677.0,7.0,338.0,['d1571cc0-0d88-455b-be2e-91447ddac859']
66,0x89213f11E4A356d450Ab89A876F4c1cb5B8996DA,Privy,metrics_available,59.0,12.0,0.0,0.0,73.0,17.0,0.0,0.0,['97a50e6a-18df-4572-bcb5-235b63f7e256']
67,0x8d17B248525EDB99cc36c4D458871aDC8B025cD0,Dragon Academy,metrics_available,21.0,12.0,0.0,4.0,21.0,12.0,0.0,4.0,['d43a073e-a744-43a7-804c-3e1c402c2c9a']
68,0x8dA48e5846c06B558970ACd42EDc7Da8799481E4,WebHash.com,metrics_available,598.0,271.0,3.0,55.0,1563.0,481.0,3.0,137.0,['d4a2d1b2-ae53-4e4a-a860-8fcbffb48351']
69,0x92caBFc81734bf827B037065076eF8C78AcBd12F,Merkl,metrics_available,40786.0,11756.0,399.0,3434.0,45126.0,12095.0,217.0,3462.0,['76a5ab6c-a252-4c73-90c9-cff05b85a2b1']
70,0x963D564CA6377Ee5581eE6204A13184bb887bfc8,motoDEX,metrics_available,272.0,139.0,1.0,3.0,293.0,155.0,0.0,11.0,"['2625454f-6714-4b8f-bdda-31b886e25702', '8dcfac3e-f424-4589-9f63-ac08d3783d0a']"
71,0x974dD3B4e5E00BC3117Fbba15E521B6B5aFC151C,BSX,metrics_available,45764.0,130.0,3.0,23.0,58333.0,1032.0,9.0,143.0,['74068a98-86e1-412c-8e44-c3602d55b284']
72,0x984195f93DB193EDB0023F321Fd1a4e2278c43f3,Gambit Finance,metrics_available,73842.0,384.0,45.0,59.0,73842.0,384.0,22.0,59.0,['1c8d19aa-789f-4a52-a624-ee7bda2c885a']
73,0x997b0CcEd542b6d2A7e0Bae5649aFd9d0861CB4e,far.quest - Farcaster Super App,metrics_available,24321.0,16445.0,205.0,7985.0,62655.0,43557.0,280.0,24712.0,['2963e6a6-0d53-47b8-b239-f40182f7746c']
74,0x99Fc221482ca78664d0288FfC6531cb6dfEB0c5a,Da Performers,metrics_available,9.0,6.0,0.0,5.0,48.0,9.0,0.0,6.0,['ad7d7772-20a5-4786-b34a-3df2cdbe2ff3']
75,0x9A1d17c82b8FdD83aB3004bEd20C44d3b0131C0b,Lizard,metrics_available,844802.0,1198.0,22.0,76.0,863075.0,1398.0,14.0,78.0,['4d172a4b-7c8e-40b6-84f6-475906c42d67']
76,0x9D63038e7f74bc089eb38e61Be8Da937918900D6,Amazing Hunt,metrics_available,1179.0,3.0,0.0,0.0,1179.0,3.0,0.0,0.0,['657d3052-63b9-499a-8898-ee74a2d4c0e7']
77,0x9F36A6bB398118bdCD5B1bC3343D8FEB6d7d02B9,PoolTogether,metrics_available,37.0,7.0,0.0,0.0,52.0,11.0,0.0,0.0,['e9aa7925-c471-4c63-961a-c35abfe20159']
78,0x9b7816f3eb2d35A24edD9BB4F33f05E9a2332494,Yunan90,metrics_available,13.0,7.0,0.0,0.0,43.0,17.0,0.0,1.0,['49ee3492-1af1-41e2-8ef2-f5f388470d46']
79,0x9d8a155f084741fF4C69c3B1272b5b30A8373d1b,Supa,metrics_available,1.0,1.0,0.0,1.0,1039.0,60.0,0.0,35.0,['6b6c1870-6136-488d-a8bb-d55a65a3f69a']
80,0x9dE1C45449258a21B51fe69eB6cef1Fd71E459a4,BUZZAR,metrics_available,209.0,68.0,2.0,1.0,333.0,77.0,1.0,1.0,['7f2d11e3-2b97-4e36-b732-ac349ed2f1c7']
81,0x9ff6d5452a0847949683F97E868d706254a05007,Definitive Finance,metrics_available,84544.0,170.0,9.0,0.0,192279.0,515.0,14.0,0.0,['6a11ad77-d1d4-47ce-ba2f-d89cf853fd00']
82,0xA582360DA4ae1fBb912C975fcce1A0C0e2af91e8,Surreal,metrics_available,119.0,69.0,1.0,38.0,266.0,154.0,1.0,65.0,['e50d1f7e-57e9-4d5c-8e71-ec627032d4b0']
83,0xA5D224B43EAB837aa2Ee9C6Ed727f1613f301A5E,Flappycaster,metrics_available,53.0,52.0,0.0,47.0,53.0,52.0,0.0,47.0,['30e2ef09-65f0-49de-9f98-6625a67353e4']
84,0xA8F0048A0d1A04663Ca5010d0bEaC5BCAEeA0eef,Attesta_Mesta,metrics_available,1.0,1.0,0.0,0.0,1.0,1.0,0.0,0.0,['fdceb040-c3e7-4096-a801-6c75adf400ed']
85,0xAa66fC4433DFD254F05A720A8c8a2f1F2fbDCB58,Nouns Boy,metrics_available,3.0,3.0,0.0,0.0,3.0,3.0,0.0,0.0,['d4661317-9967-4a9a-bda9-f6a19b2ca498']
86,0xB03E094e643a50E145E804b35787C28292E6Afe4,Ethereum Ecosystem,metrics_available,12886.0,834.0,19.0,346.0,40355.0,1694.0,23.0,685.0,['e76e956b-4d97-4568-ab35-3f2753f37969']
87,0xB1dD2Fdb023cB54b7cc2a0f5D9e8d47a9F7723ce,BMX,metrics_available,189355.0,5836.0,203.0,790.0,343047.0,9269.0,185.0,1470.0,"['094ee083-01d1-41f8-81c6-3fe33232a8c7', '5569f166-7c5c-4cdf-a11b-5a4280086a5a', '6a1f5979-e9ab-4971-a7ec-80ce58ad15d6', '78b87055-ab6e-4fea-8808-d78eaadc2d3f', '8e44e5b4-87ae-4d63-96eb-b0849eb394ad', '954f07a8-715d-415f-a211-0602eaeac7d2', 'fb221b04-388b-4bb2-be7b-fc95dfc13e51']"
88,0xB1dD2Fdb023cB54b7cc2a0f5D9e8d47a9F7723ce,BMX by Morphex,metrics_available,1160.0,116.0,5.0,10.0,3545.0,253.0,5.0,37.0,['a622ebca-d695-487e-adc9-931372135973']
89,0xBc57373c9B99524f6300664e2602A0427A9ec0db,Degenfans gated frames,metrics_available,41.0,18.0,0.0,15.0,41.0,18.0,0.0,15.0,['c6bad58d-bae9-443d-baa4-40f2548a7e3c']
90,0xC4FC57Dedd2463314A3fD2DBadB86B4404C257e5,Fractal Visions,metrics_available,519.0,17.0,0.0,7.0,1084.0,251.0,2.0,37.0,['0c01f116-4cbb-4123-90a7-b8067be7907a']
91,0xC925bD0E839E8e22A7DDEbe7f4C21b187deeC358,BUILD,metrics_available,236731.0,50356.0,871.0,30915.0,388406.0,61979.0,655.0,35003.0,['9833b9ba-50c0-4119-a480-1815f0b8fd3f']
92,0xC925bD0E839E8e22A7DDEbe7f4C21b187deeC358,Talent Protocol,metrics_available,18659.0,2.0,0.0,0.0,18659.0,2.0,0.0,0.0,['f3a42626-c33e-40c6-bea0-fbfc53aa402a']
93,0xCFFbda2841Ef95DF3e977982eCc55429B8D82eB5,Tasseo,metrics_available,193.0,92.0,1.0,43.0,193.0,92.0,0.0,43.0,['7c4ccb00-8e0d-4b6f-8f95-befe7d702d10']
94,0xD50A234082C1CEa12A7A9DD6F37a85fcc55ED459,RubyScore,metrics_available,277499.0,28821.0,1100.0,4133.0,575960.0,77125.0,1587.0,8301.0,"['02439dc9-9d63-4ba9-a0b0-b995251586ed', '44f074aa-6ccd-4f72-be91-92c406f0bdca', '5f969f7d-8725-48d9-9249-e7655827caba', '860b6f97-d7d3-4da6-85f0-3d83d94a8256', 'cbd87620-2028-4bc0-a2a2-d915bb2454b9']"
95,0xDB15fcEa49836C09672DeBf8EF53FFe4400cE377,Ironclad Finance,metrics_available,33317.0,5656.0,104.0,2336.0,274467.0,30615.0,359.0,10935.0,['0faedca5-9e1f-48c5-817e-c21defb36379']
96,0xE4EE538019673501F4B75de5aF5CC073Ec0A1487,0x,metrics_available,1543115.0,154685.0,3984.0,9828.0,2811827.0,361243.0,5434.0,27040.0,['89eb0a1c-36f6-4455-af98-c822064425bb']
97,0xEAF56cF68C38281252E49b460c5a66925991475B,L2Pass,metrics_available,4724.0,3420.0,42.0,206.0,274387.0,105561.0,912.0,2883.0,"['25ed3a90-eaff-43c3-b108-e4203e6b748b', '670de93f-62ec-4b06-b88b-682b641c4e06', '9eabb839-0400-443c-bc8f-9870d8ede259', 'afdbf54a-2292-4771-b8a5-8d6f2df3fe8d', 'ef1a8dd7-8708-4b0d-87a5-2560df048a80', 'f62ec95e-b0ff-4aa6-a255-8b706700dc36']"
98,0xEfCCa47CD11D4b1637e4d52a84Ed5dafFAd38F04,Beefy,metrics_available,352.0,7.0,0.0,0.0,698.0,13.0,0.0,0.0,"['09baa82a-7357-46e3-92f5-e9eee6fcf78f', '51c0df81-19ad-49bb-9a31-22f3b91f8582', '97cabf58-7c53-4a67-b012-c41089efca7d', 'b0d81cb2-db15-44c5-bfd7-15d5051bb1a8', 'f3e64503-ac75-4eb7-8d55-46c0ec60d638']"
99,0xF05b5f04B7a77Ca549C0dE06beaF257f40C66FDB,Daimo,metrics_available,1965.0,2.0,1.0,0.0,4373.0,2.0,1.0,0.0,['dcb7fb46-54dd-4887-954f-53c69f819f8e']
100,0xF63B3cE2D038f11CA4fC5e11265B7b4417a16aDc,Recipes Onchain,metrics_available,19.0,1.0,0.0,0.0,19.0,1.0,0.0,0.0,['c89a18cb-081f-4a9b-b580-e1285163613a']
101,0xF660c9E24A79aE74215A2e2300113CE79094c9C6,Uniswap Position,metrics_available,1.0,1.0,0.0,0.0,1.0,1.0,0.0,0.0,['ac82dcda-5f32-48b2-9117-b2e348ff6c35']
102,0xF7032A9261BbB04b0E7b4d2bb3E8f96aCF825AE4,Idle,metrics_available,87.0,39.0,1.0,4.0,197.0,54.0,1.0,6.0,['320999ba-11c1-420f-bdfa-d86f53e2e0a9']
103,0xF764467b8c6aBb2c2a3B9835547A2468B04dBa9a,Omni X,metrics_available,557.0,395.0,4.0,87.0,41368.0,24199.0,188.0,1009.0,"['34035eff-5a57-4d55-9a4d-a065b399babb', '7f4c65a6-d3c1-4c34-bf64-65db0b60348a', '9867fb53-d3a6-46de-be0e-c4b6b21a0fa0', 'ccbb4b92-d95b-4de5-a252-b52d0a5fa90a']"
104,0xFE35e15bE885750D9b2363cbB6aBDd57AC9C4c40,Dot,metrics_available,17553.0,1503.0,20.0,60.0,18936.0,1511.0,10.0,62.0,['7184f549-29f4-47c2-bdef-d5c6d569f678']
105,0xa6BeE3f99eE2b70672A34A983AF0bBF79C028CD9,Cat Town,metrics_available,140136.0,4480.0,707.0,253.0,155761.0,4654.0,400.0,271.0,"['2501e7cb-57f8-4e70-ac38-bcf8efdeae08', '3838464c-4733-491d-8c02-6c4cad6d53b1']"
106,0xb48E8dA63c2aFc5633702B7acf4BDe830c1dE48b,Basepaint,metrics_available,5574.0,412.0,43.0,142.0,12738.0,661.0,55.0,206.0,['127b9325-9491-42cb-af85-94a69055b52a']
107,0xb854e45662770848f0809Ed0764dc1d226125a26,HAM,metrics_available,9.0,6.0,0.0,3.0,9.0,6.0,0.0,3.0,['56c0530e-aa91-46ae-9cae-66d17ebb639b']
108,0xbB08A11275989a00b0bFbEE807dfb5e18AA3d19B,EFIHUB,metrics_available,62.0,21.0,0.0,4.0,109.0,30.0,0.0,11.0,"['700f7d42-49f5-4a42-a75c-09fae7f20a6b', 'ddbf8816-6804-4541-8e2a-1b99cd1a4d5a']"
109,0xbD90Fa61ee83123A5c42EB2024Cd00FEDBb932AE,BaseSwap ,metrics_available,21.0,12.0,0.0,2.0,63.0,47.0,0.0,7.0,['83ab7eff-40a3-4d89-bf28-368a5a16faa3']
110,0xc42c77b6B2A2B220b9502F357bBf51334Db3C93f,Top Test,metrics_available,15.0,12.0,0.0,0.0,46.0,21.0,0.0,0.0,['869cb124-1c70-477c-936d-449a9bccd567']
111,0xc687f7c9BDfF8d40cF4f789FA105f7dCF0771d6a,Aerodrome Finance,metrics_available,26251866.0,196067.0,7605.0,12760.0,36012251.0,300062.0,7534.0,21417.0,['b4d81636-0080-49bd-8039-0721b3ea716c']
112,0xc687f7c9BDfF8d40cF4f789FA105f7dCF0771d6a,Velodrome Finance,metrics_available,7272044.0,49244.0,1853.0,15345.0,9712930.0,76271.0,2015.0,18900.0,['b607f3fb-dd0e-4a9e-b56e-191f8f28fa01']
113,0xc87e97a6219725ce2A184A668Ae74f3733D4C510,Seamless Protocol,metrics_available,2.0,1.0,0.0,0.0,10.0,2.0,0.0,0.0,['70454ef1-f5d4-4b74-a3d0-ce63504972fe']
114,0xc9a5cb4bDA310fBcDcd83Fc502C146645280Ce7A,Superbridge,metrics_available,44.0,40.0,0.0,2.0,91.0,72.0,0.0,3.0,['c091964f-8f72-433b-a294-effd324e34ed']
115,0xcb8515FD5A82e9aCf0c4A96959504ffcAB891B97,Copin.io,metrics_available,4.0,3.0,0.0,0.0,437.0,427.0,2.0,2.0,['1f2e7de2-fd5e-4df9-ba8c-f37e1bec64fd']
116,0xcfBf34d385EA2d5Eb947063b67eA226dcDA3DC38,I'm Tired Of Being Hypersurveilled: Art Collection,metrics_available,59.0,49.0,0.0,29.0,4358.0,3676.0,21.0,1722.0,['d415ba93-8f6e-409a-bd9b-d310c6112dc8']
117,0xd271e65Ff057cE4aDE07c52Da78d54b391AD4dcD,TOCD Studio,metrics_available,279.0,10.0,1.0,1.0,4067.0,11.0,1.0,1.0,['e9644a11-f9dd-4efd-b4dc-0d197047512d']
118,0xe999E0cEf99050b59DbE9472aa9a3c3E0816FdB5,Spotlight,metrics_available,99.0,39.0,0.0,1.0,99.0,39.0,0.0,1.0,['2b3eb503-4f39-4737-ac25-8b78b54aac7e']
119,0xec14D5F694841Ca7b851013F096B0060026FD38C,Superform,metrics_available,91890.0,41033.0,817.0,11284.0,123151.0,50024.0,536.0,13351.0,['7c20aa1a-9c30-4a6c-aa77-f1fdf0570c59']
120,0xee324c588ceF1BF1c1360883E4318834af66366d,Kiwi News,metrics_available,287.0,178.0,2.0,128.0,444.0,263.0,2.0,198.0,['63ccc515-d1aa-4f68-b5a4-2177b10f81cc']
121,0xee5a3e1C0049089683F6183Cb5a4928085b330c0,Starta x Degen Bridge,metrics_available,18.0,12.0,0.0,7.0,183.0,85.0,0.0,65.0,['628e384f-7826-4f97-8509-aff80c9bf4f2']
122,0xf01Dd015Bc442d872275A79b9caE84A6ff9B2A27,Opti.Domains,metrics_available,1.0,1.0,0.0,0.0,2078.0,1910.0,10.0,343.0,['4d7a1967-86d1-4818-820f-5b2695243cbc']
123,0xf1B8c360317bf1249F976ab82c78aE50365822ec,Optimism Fractal Respect Game,metrics_available,82.0,17.0,0.0,9.0,206.0,31.0,0.0,12.0,['17d8f473-a44a-40c9-ad70-41d479db86e3']
124,0xf1a871aF236eC0Da070C3b09302270Ccf4E35794,AI,metrics_available,41.0,21.0,0.0,1.0,55.0,28.0,0.0,3.0,['c31e36bc-69ad-40e8-a3b9-29f5c1d6d86a']
125,0xf3B06b503652a5E075D423F97056DFde0C4b066F,Votecaster,metrics_available,23.0,4.0,0.0,3.0,23.0,4.0,0.0,3.0,['1c0ae0df-9238-497d-8fa0-ad05f381cf34']
126,0xf40eD759BF4C05DF1Af180FE27d470E52D7ca611,Cat Town | Gacha,metrics_available,43.0,4.0,0.0,3.0,43.0,4.0,0.0,3.0,['77e31db9-a73e-4aad-a8eb-694bd5c0ae54']
127,0x3363b291a21cC692A5e07C9C63E3DF45F135EFcd,Scry,no_onchain_activity_90D,,,,,,,,,['4b8a828b-14c0-47fb-9688-48706601ebc7']
128,0x48294a067D1bC5a58BCbAB4b3bE329d078D9E1Af,Pin Save,no_onchain_activity_90D,,,,,,,,,['1cda49ae-4a15-4437-a24e-260f4d43cbaa']
129,0x839d36595175E1F678110d52D8265a2FEa9607bA,TLX,no_onchain_activity_90D,,,,,,,,,['ca0f8386-dd66-4486-8a50-060e2beb29aa']
130,0x9D63038e7f74bc089eb38e61Be8Da937918900D6,Bored Town,no_onchain_activity_90D,,,,,,,,,['0674ed13-3026-4dad-9565-b522a40c8eff']
131,0xAa66fC4433DFD254F05A720A8c8a2f1F2fbDCB58,baby Dragon,no_onchain_activity_90D,,,,,,,,,['9a65dbec-2fb8-4889-9ef3-e1e2bbef14d4']
132,0xeAb4717efb29f91429dB6322F42Edc53C94F0941,Avantis ,no_onchain_activity_90D,,,,,,,,,['0592c036-8570-4c55-83bd-759ac99860ad']
133,0xfC4852B5e3aF65058CdfE1D1dce26946c0C1975f,song.camp: mint your music,no_onchain_activity_90D,,,,,,,,,['339045ef-ff61-4c5e-be0c-fd092be8f7dd']
